{
  "type": "FeatureCollection",
  "features": [
    {
      "type": "Feature",
      "properties": {
        "norad_id": 28899,
        "name": "INMARSAT 4-F2 (SOUTHPAN/PRN 122)",
        "group": "gnss",
        "lat": -2.9362241878389876,
        "lon": 6.555365792499987,
        "alt_km": 35787.272741817615,
        "timestamp": "2025-12-19T08:58:49.580544+00:00",
        "meta_object_name": "INMARSAT 4-F2 (SOUTHPAN/PRN 122)",
        "meta_object_id": "2005-044A",
        "meta_epoch": "2025-12-18T22:32:16.506816",
        "meta_mean_motion": 1.00272525,
        "meta_eccentricity": 0.00024643,
        "meta_inclination": 4.8591,
        "meta_ra_of_asc_node": 43.7031,
        "meta_arg_of_pericenter": 227.4907,
        "meta_mean_anomaly": 298.1734,
        "meta_ephemeris_type": 0,
        "meta_classification_type": "U",
        "meta_norad_cat_id": 28899,
        "meta_element_set_no": 999,
        "meta_rev_at_epoch": 7371,
        "meta_bstar": 0,
        "meta_mean_motion_dot": -2.4e-06,
        "meta_mean_motion_ddot": 0,
        "tle_line1": "1 28899U 05044A   25352.93907994 -.00000240  00000+0  00000+0 0  9991",
        "tle_line2": "2 28899   4.8591  43.7031 0002464 227.4907 298.1734  1.00272525 73716"
      },
      "geometry": {
        "type": "Point",
        "coordinates": [
          6.555365792499987,
          -2.9362241878389876
        ]
      }
    },
    {
      "type": "Feature",
      "properties": {
        "norad_id": 29486,
        "name": "GPS BIIRM-2 (PRN 31)",
        "group": "gnss",
        "lat": -54.20498853124822,
        "lon": 57.949401195858414,
        "alt_km": 20430.319777833283,
        "timestamp": "2025-12-19T08:58:49.580556+00:00",
        "meta_object_name": "GPS BIIRM-2 (PRN 31)",
        "meta_object_id": "2006-042A",
        "meta_epoch": "2025-12-18T13:15:57.668256",
        "meta_mean_motion": 2.00553965,
        "meta_eccentricity": 0.01073199,
        "meta_inclination": 54.6948,
        "meta_ra_of_asc_node": 158.5101,
        "meta_arg_of_pericenter": 52.102,
        "meta_mean_anomaly": 339.2959,
        "meta_ephemeris_type": 0,
        "meta_classification_type": "U",
        "meta_norad_cat_id": 29486,
        "meta_element_set_no": 999,
        "meta_rev_at_epoch": 14077,
        "meta_bstar": 0,
        "meta_mean_motion_dot": 7.3e-07,
        "meta_mean_motion_ddot": 0,
        "tle_line1": "1 29486U 06042A   25352.55275079  .00000073  00000+0  00000+0 0  9996",
        "tle_line2": "2 29486  54.6948 158.5101 0107319  52.1020 339.2959  2.00553965140773"
      },
      "geometry": {
        "type": "Point",
        "coordinates": [
          57.949401195858414,
          -54.20498853124822
        ]
      }
    },
    {
      "type": "Feature",
      "properties": {
        "norad_id": 29601,
        "name": "GPS BIIRM-3 (PRN 12)",
        "group": "gnss",
        "lat": -30.49195692744603,
        "lon": -163.23794256012536,
        "alt_km": 20319.886564567067,
        "timestamp": "2025-12-19T08:58:49.580569+00:00",
        "meta_object_name": "GPS BIIRM-3 (PRN 12)",
        "meta_object_id": "2006-052A",
        "meta_epoch": "2025-12-17T22:21:49.359456",
        "meta_mean_motion": 2.00574035,
        "meta_eccentricity": 0.00878262,
        "meta_inclination": 54.9695,
        "meta_ra_of_asc_node": 221.1921,
        "meta_arg_of_pericenter": 87.4631,
        "meta_mean_anomaly": 273.6373,
        "meta_ephemeris_type": 0,
        "meta_classification_type": "U",
        "meta_norad_cat_id": 29601,
        "meta_element_set_no": 999,
        "meta_rev_at_epoch": 13977,
        "meta_bstar": 0,
        "meta_mean_motion_dot": 7.5e-07,
        "meta_mean_motion_ddot": 0,
        "tle_line1": "1 29601U 06052A   25351.93182129  .00000075  00000+0  00000+0 0  9992",
        "tle_line2": "2 29601  54.9695 221.1921 0087826  87.4631 273.6373  2.00574035139770"
      },
      "geometry": {
        "type": "Point",
        "coordinates": [
          -163.23794256012536,
          -30.49195692744603
        ]
      }
    },
    {
      "type": "Feature",
      "properties": {
        "norad_id": 32260,
        "name": "GPS BIIRM-4 (PRN 15)",
        "group": "gnss",
        "lat": 52.017168254348476,
        "lon": -161.12083355387583,
        "alt_km": 19760.71998272432,
        "timestamp": "2025-12-19T08:58:49.580581+00:00",
        "meta_object_name": "GPS BIIRM-4 (PRN 15)",
        "meta_object_id": "2007-047A",
        "meta_epoch": "2025-12-18T05:42:28.689120",
        "meta_mean_motion": 2.0056436,
        "meta_eccentricity": 0.01640962,
        "meta_inclination": 53.959,
        "meta_ra_of_asc_node": 87.5314,
        "meta_arg_of_pericenter": 85.3192,
        "meta_mean_anomaly": 276.5459,
        "meta_ephemeris_type": 0,
        "meta_classification_type": "U",
        "meta_norad_cat_id": 32260,
        "meta_element_set_no": 999,
        "meta_rev_at_epoch": 13318,
        "meta_bstar": 0,
        "meta_mean_motion_dot": -4.8e-07,
        "meta_mean_motion_ddot": 0,
        "tle_line1": "1 32260U 07047A   25352.23783205 -.00000048  00000+0  00000+0 0  9999",
        "tle_line2": "2 32260  53.9590  87.5314 0164096  85.3192 276.5459  2.00564360133188"
      },
      "geometry": {
        "type": "Point",
        "coordinates": [
          -161.12083355387583,
          52.017168254348476
        ]
      }
    },
    {
      "type": "Feature",
      "properties": {
        "norad_id": 32275,
        "name": "COSMOS 2433 (720)",
        "group": "gnss",
        "lat": 34.60588906514122,
        "lon": 123.78929864372381,
        "alt_km": 19131.164012168258,
        "timestamp": "2025-12-19T08:58:49.580593+00:00",
        "meta_object_name": "COSMOS 2433 (720)",
        "meta_object_id": "2007-052A",
        "meta_epoch": "2025-12-18T06:01:45.286176",
        "meta_mean_motion": 2.13104131,
        "meta_eccentricity": 0.00053253,
        "meta_inclination": 65.6801,
        "meta_ra_of_asc_node": 322.0201,
        "meta_arg_of_pericenter": 254.759,
        "meta_mean_anomaly": 105.1749,
        "meta_ephemeris_type": 0,
        "meta_classification_type": "U",
        "meta_norad_cat_id": 32275,
        "meta_element_set_no": 999,
        "meta_rev_at_epoch": 14120,
        "meta_bstar": 0,
        "meta_mean_motion_dot": -6.3e-07,
        "meta_mean_motion_ddot": 0,
        "tle_line1": "1 32275U 07052A   25352.25121859 -.00000063  00000+0  00000+0 0  9991",
        "tle_line2": "2 32275  65.6801 322.0201 0005325 254.7590 105.1749  2.13104131141205"
      },
      "geometry": {
        "type": "Point",
        "coordinates": [
          123.78929864372381,
          34.60588906514122
        ]
      }
    },
    {
      "type": "Feature",
      "properties": {
        "norad_id": 32276,
        "name": "COSMOS 2432 (719)",
        "group": "gnss",
        "lat": 65.38303297743191,
        "lon": 42.488228706436736,
        "alt_km": 19142.512696612375,
        "timestamp": "2025-12-19T08:58:49.580605+00:00",
        "meta_object_name": "COSMOS 2432 (719)",
        "meta_object_id": "2007-052B",
        "meta_epoch": "2025-12-18T13:03:56.692224",
        "meta_mean_motion": 2.13103303,
        "meta_eccentricity": 0.00113252,
        "meta_inclination": 65.6958,
        "meta_ra_of_asc_node": 322.1345,
        "meta_arg_of_pericenter": 313.2452,
        "meta_mean_anomaly": 216.061,
        "meta_ephemeris_type": 0,
        "meta_classification_type": "U",
        "meta_norad_cat_id": 32276,
        "meta_element_set_no": 999,
        "meta_rev_at_epoch": 14123,
        "meta_bstar": 0,
        "meta_mean_motion_dot": -6.2e-07,
        "meta_mean_motion_ddot": 0,
        "tle_line1": "1 32276U 07052B   25352.54440616 -.00000062  00000+0  00000+0 0  9998",
        "tle_line2": "2 32276  65.6958 322.1345 0011325 313.2452 216.0610  2.13103303141236"
      },
      "geometry": {
        "type": "Point",
        "coordinates": [
          42.488228706436736,
          65.38303297743191
        ]
      }
    },
    {
      "type": "Feature",
      "properties": {
        "norad_id": 32384,
        "name": "GPS BIIRM-5 (PRN 29)",
        "group": "gnss",
        "lat": -40.485037532588585,
        "lon": 137.75570120332677,
        "alt_km": 20156.186362475775,
        "timestamp": "2025-12-19T08:58:49.580617+00:00",
        "meta_object_name": "GPS BIIRM-5 (PRN 29)",
        "meta_object_id": "2007-062A",
        "meta_epoch": "2025-12-18T19:12:42.092352",
        "meta_mean_motion": 2.00577688,
        "meta_eccentricity": 0.00322662,
        "meta_inclination": 55.1769,
        "meta_ra_of_asc_node": 281.4029,
        "meta_arg_of_pericenter": 162.2283,
        "meta_mean_anomaly": 15.3827,
        "meta_ephemeris_type": 0,
        "meta_classification_type": "U",
        "meta_norad_cat_id": 32384,
        "meta_element_set_no": 999,
        "meta_rev_at_epoch": 13189,
        "meta_bstar": 0,
        "meta_mean_motion_dot": -4.1e-07,
        "meta_mean_motion_ddot": 0,
        "tle_line1": "1 32384U 07062A   25352.80048718 -.00000041  00000+0  00000+0 0  9992",
        "tle_line2": "2 32384  55.1769 281.4029 0032266 162.2283  15.3827  2.00577688131895"
      },
      "geometry": {
        "type": "Point",
        "coordinates": [
          137.75570120332677,
          -40.485037532588585
        ]
      }
    }
  ]
}